start=new Date('2023-02-01T00:00:00.000Z').valueOf();
sats=[{"FILE":"3766475","EPOCH":"2023-01-31T10:59:24.837504","MEAN_ELEMENT_THEORY":"SGP4","GP_ID":"224097371","TLE_LINE1":"1 52564U 22051AH  23031.45792636  .00000080  00000-0  23126-4 0  9999","PERIAPSIS":"538.984","REV_AT_EPOCH":"4029","TLE_LINE2":"2 52564  53.2177 181.3964 0001138  89.9874 270.1249 15.08831688 40297","CLASSIFICATION_TYPE":"U","RCS_SIZE":"LARGE","ELEMENT_SET_NO":"999","MEAN_MOTION_DOT":"0.00000080","EPHEMERIS_TYPE":"0","PERIOD":"95.438","OBJECT_NAME":"STARLINK-3959","BSTAR":"0.00002312600000","MEAN_MOTION_DDOT":"0.0000000000000","MEAN_MOTION":"15.08831688","ECCENTRICITY":"0.00011380","INCLINATION":"53.2177","COUNTRY_CODE":"US","ARG_OF_PERICENTER":"89.9874","RA_OF_ASC_NODE":"181.3964","CENTER_NAME":"EARTH","LAUNCH_DATE":"2022-05-13","OBJECT_ID":"2022-051AH","OBJECT_TYPE":"PAYLOAD","TIME_SYSTEM":"UTC","MEAN_ANOMALY":"270.1249","NORAD_CAT_ID":"52564","REF_FRAME":"TEME","SEMIMAJOR_AXIS":"6917.906","APOAPSIS":"540.558","DECAY_DATE":null,"SITE":"AFWTR"},{"TLE_LINE1":"1 52565U 22051AJ  23031.74081712  .00001841  00000-0  13370-3 0  9993","PERIAPSIS":"538.961","REV_AT_EPOCH":"4054","TLE_LINE2":"2 52565  53.2161 165.1283 0001117  97.0144 263.0975 15.08843775 40547","CLASSIFICATION_TYPE":"U","RCS_SIZE":"LARGE","ELEMENT_SET_NO":"999","FILE":"3766747","EPOCH":"2023-01-31T17:46:46.599168","MEAN_ELEMENT_THEORY":"SGP4","GP_ID":"224126982","MEAN_MOTION_DDOT":"0.0000000000000","MEAN_MOTION":"15.08843775","MEAN_MOTION_DOT":"0.00001841","EPHEMERIS_TYPE":"0","PERIOD":"95.437","OBJECT_NAME":"STARLINK-3911","BSTAR":"0.00013370000000","CENTER_NAME":"EARTH","LAUNCH_DATE":"2022-05-13","OBJECT_ID":"2022-051AJ","OBJECT_TYPE":"PAYLOAD","ECCENTRICITY":"0.00011170","INCLINATION":"53.2161","COUNTRY_CODE":"US","ARG_OF_PERICENTER":"97.0144","RA_OF_ASC_NODE":"165.1283","APOAPSIS":"540.507","DECAY_DATE":null,"SITE":"AFWTR","TIME_SYSTEM":"UTC","MEAN_ANOMALY":"263.0975","NORAD_CAT_ID":"52565","REF_FRAME":"TEME","SEMIMAJOR_AXIS":"6917.869"},{"APOAPSIS":"540.691","SITE":"AFWTR","DECAY_DATE":null,"MEAN_ANOMALY":"258.8369","TIME_SYSTEM":"UTC","SEMIMAJOR_AXIS":"6917.886","NORAD_CAT_ID":"52566","REF_FRAME":"TEME","OBJECT_ID":"2022-051AK","LAUNCH_DATE":"2022-05-13","CENTER_NAME":"EARTH","OBJECT_TYPE":"PAYLOAD","INCLINATION":"53.2136","ECCENTRICITY":"0.00013590","RA_OF_ASC_NODE":"181.5043","ARG_OF_PERICENTER":"101.2775","COUNTRY_CODE":"US","MEAN_MOTION":"15.08838057","MEAN_MOTION_DDOT":"0.0000000000000","PERIOD":"95.438","EPHEMERIS_TYPE":"0","MEAN_MOTION_DOT":"-0.00000284","BSTAR":"0.00000023815000","OBJECT_NAME":"STARLINK-3938","TLE_LINE2":"2 52566  53.2136 181.5043 0001359 101.2775 258.8369 15.08838057 40290","REV_AT_EPOCH":"4029","PERIAPSIS":"538.811","TLE_LINE1":"1 52566U 22051AK  23031.43583987 -.00000284  00000-0  23815-6 0  9990","ELEMENT_SET_NO":"999","RCS_SIZE":"LARGE","CLASSIFICATION_TYPE":"U","EPOCH":"2023-01-31T10:27:36.564768","FILE":"3766475","GP_ID":"224096378","MEAN_ELEMENT_THEORY":"SGP4"},{"APOAPSIS":"540.497","DECAY_DATE":null,"SITE":"AFWTR","TIME_SYSTEM":"UTC","MEAN_ANOMALY":"258.1988","NORAD_CAT_ID":"52567","REF_FRAME":"TEME","SEMIMAJOR_AXIS":"6917.871","CENTER_NAME":"EARTH","OBJECT_ID":"2022-051AL","LAUNCH_DATE":"2022-05-13","OBJECT_TYPE":"PAYLOAD","INCLINATION":"53.2170","ECCENTRICITY":"0.00011000","ARG_OF_PERICENTER":"101.9128","COUNTRY_CODE":"US","RA_OF_ASC_NODE":"164.8556","MEAN_MOTION":"15.08843129","MEAN_MOTION_DDOT":"0.0000000000000","MEAN_MOTION_DOT":"0.00000515","PERIOD":"95.437","EPHEMERIS_TYPE":"0","BSTAR":"0.00005045700000","OBJECT_NAME":"STARLINK-3929","PERIAPSIS":"538.975","TLE_LINE1":"1 52567U 22051AL  23031.79969652  .00000515  00000-0  50457-4 0  9993","TLE_LINE2":"2 52567  53.2170 164.8556 0001100 101.9128 258.1988 15.08843129 40550","REV_AT_EPOCH":"4055","CLASSIFICATION_TYPE":"U","ELEMENT_SET_NO":"999","RCS_SIZE":"LARGE","FILE":"3766747","EPOCH":"2023-01-31T19:11:33.779328","MEAN_ELEMENT_THEORY":"SGP4","GP_ID":"224127984"},{"TLE_LINE1":"1 52568U 22051AM  23031.72241618  .00000371  00000-0  41361-4 0  9996","PERIAPSIS":"538.955","REV_AT_EPOCH":"4054","TLE_LINE2":"2 52568  53.2162 165.2105 0001134  78.5112 281.6007 15.08841878 40547","CLASSIFICATION_TYPE":"U","RCS_SIZE":"LARGE","ELEMENT_SET_NO":"999","FILE":"3766747","EPOCH":"2023-01-31T17:20:16.757952","MEAN_ELEMENT_THEORY":"SGP4","GP_ID":"224127735","MEAN_MOTION_DDOT":"0.0000000000000","MEAN_MOTION":"15.08841878","MEAN_MOTION_DOT":"0.00000371","EPHEMERIS_TYPE":"0","PERIOD":"95.437","OBJECT_NAME":"STARLINK-3930","BSTAR":"0.00004136100000","CENTER_NAME":"EARTH","LAUNCH_DATE":"2022-05-13","OBJECT_ID":"2022-051AM","OBJECT_TYPE":"PAYLOAD","ECCENTRICITY":"0.00011340","INCLINATION":"53.2162","COUNTRY_CODE":"US","ARG_OF_PERICENTER":"78.5112","RA_OF_ASC_NODE":"165.2105","APOAPSIS":"540.524","DECAY_DATE":null,"SITE":"AFWTR","TIME_SYSTEM":"UTC","MEAN_ANOMALY":"281.6007","NORAD_CAT_ID":"52568","REF_FRAME":"TEME","SEMIMAJOR_AXIS":"6917.875"},{"SITE":"AFWTR","DECAY_DATE":null,"APOAPSIS":"540.657","SEMIMAJOR_AXIS":"6917.889","REF_FRAME":"TEME","NORAD_CAT_ID":"52569","MEAN_ANOMALY":"266.0592","TIME_SYSTEM":"UTC","OBJECT_TYPE":"PAYLOAD","OBJECT_ID":"2022-051AN","LAUNCH_DATE":"2022-05-13","CENTER_NAME":"EARTH","RA_OF_ASC_NODE":"166.0714","ARG_OF_PERICENTER":"94.0549","COUNTRY_CODE":"US","INCLINATION":"53.2173","ECCENTRICITY":"0.00013050","MEAN_MOTION":"15.08837226","MEAN_MOTION_DDOT":"0.0000000000000","BSTAR":"0.00007467700000","OBJECT_NAME":"STARLINK-3927","PERIOD":"95.438","EPHEMERIS_TYPE":"0","MEAN_MOTION_DOT":"0.00000901","ELEMENT_SET_NO":"999","RCS_SIZE":"LARGE","CLASSIFICATION_TYPE":"U","TLE_LINE2":"2 52569  53.2173 166.0714 0001305  94.0549 266.0592 15.08837226 40517","REV_AT_EPOCH":"4051","PERIAPSIS":"538.851","TLE_LINE1":"1 52569U 22051AN  23031.53105869  .00000901  00000-0  74677-4 0  9998","GP_ID":"224096128","MEAN_ELEMENT_THEORY":"SGP4","EPOCH":"2023-01-31T12:44:43.470816","FILE":"3766475"},{"CLASSIFICATION_TYPE":"U","RCS_SIZE":"LARGE","ELEMENT_SET_NO":"999","TLE_LINE1":"1 52570U 22051AP  23031.52001979 -.00000120  00000-0  10570-4 0  9992","PERIAPSIS":"538.930","REV_AT_EPOCH":"4051","TLE_LINE2":"2 52570  53.2183 166.1109 0001195  85.0800 275.0329 15.08836450 40512","MEAN_ELEMENT_THEORY":"SGP4","GP_ID":"224095879","FILE":"3766475","EPOCH":"2023-01-31T12:28:49.709856","MEAN_MOTION_DDOT":"0.0000000000000","MEAN_MOTION":"15.08836450","OBJECT_NAME":"STARLINK-3924","BSTAR":"0.00001057000000","MEAN_MOTION_DOT":"-0.00000120","EPHEMERIS_TYPE":"0","PERIOD":"95.438","OBJECT_TYPE":"PAYLOAD","CENTER_NAME":"EARTH","LAUNCH_DATE":"2022-05-13","OBJECT_ID":"2022-051AP","COUNTRY_CODE":"US","ARG_OF_PERICENTER":"85.0800","RA_OF_ASC_NODE":"166.1109","ECCENTRICITY":"0.00011950","INCLINATION":"53.2183","DECAY_DATE":null,"SITE":"AFWTR","APOAPSIS":"540.583","REF_FRAME":"TEME","NORAD_CAT_ID":"52570","SEMIMAJOR_AXIS":"6917.891","TIME_SYSTEM":"UTC","MEAN_ANOMALY":"275.0329"},{"NORAD_CAT_ID":"52574","REF_FRAME":"TEME","SEMIMAJOR_AXIS":"6917.904","TIME_SYSTEM":"UTC","MEAN_ANOMALY":"293.0980","DECAY_DATE":null,"SITE":"AFWTR","APOAPSIS":"540.328","COUNTRY_CODE":"US","ARG_OF_PERICENTER":"67.0098","RA_OF_ASC_NODE":"166.0834","ECCENTRICITY":"0.00008080","INCLINATION":"53.2164","OBJECT_TYPE":"PAYLOAD","CENTER_NAME":"EARTH","LAUNCH_DATE":"2022-05-13","OBJECT_ID":"2022-051AQ","OBJECT_NAME":"STARLINK-3901","BSTAR":"0.00013809000000","MEAN_MOTION_DOT":"0.00001910","EPHEMERIS_TYPE":"0","PERIOD":"95.438","MEAN_MOTION_DDOT":"0.0000000000000","MEAN_MOTION":"15.08832138","MEAN_ELEMENT_THEORY":"SGP4","GP_ID":"224096379","FILE":"3766475","EPOCH":"2023-01-31T12:39:25.579296","CLASSIFICATION_TYPE":"U","RCS_SIZE":"LARGE","ELEMENT_SET_NO":"999","TLE_LINE1":"1 52574U 22051AQ  23031.52737939  .00001910  00000-0  13809-3 0  9992","PERIAPSIS":"539.210","REV_AT_EPOCH":"4051","TLE_LINE2":"2 52574  53.2164 166.0834 0000808  67.0098 293.0980 15.08832138 40510"},{"OBJECT_ID":"2022-051AR","LAUNCH_DATE":"2022-05-13","CENTER_NAME":"EARTH","OBJECT_TYPE":"PAYLOAD","INCLINATION":"53.2169","ECCENTRICITY":"0.00014590","RA_OF_ASC_NODE":"166.1332","ARG_OF_PERICENTER":"96.7323","COUNTRY_CODE":"US","APOAPSIS":"540.757","SITE":"AFWTR","DECAY_DATE":null,"MEAN_ANOMALY":"263.3835","TIME_SYSTEM":"UTC","SEMIMAJOR_AXIS":"6917.883","REF_FRAME":"TEME","NORAD_CAT_ID":"52575","TLE_LINE2":"2 52575  53.2169 166.1332 0001459  96.7323 263.3835 15.08839109 40517","REV_AT_EPOCH":"4051","PERIAPSIS":"538.739","TLE_LINE1":"1 52575U 22051AR  23031.51634225  .00001630  00000-0  12048-3 0  9999","ELEMENT_SET_NO":"999","RCS_SIZE":"LARGE","CLASSIFICATION_TYPE":"U","EPOCH":"2023-01-31T12:23:31.970400","FILE":"3766475","GP_ID":"224097129","MEAN_ELEMENT_THEORY":"SGP4","MEAN_MOTION":"15.08839109","MEAN_MOTION_DDOT":"0.0000000000000","PERIOD":"95.438","EPHEMERIS_TYPE":"0","MEAN_MOTION_DOT":"0.00001630","BSTAR":"0.00012048000000","OBJECT_NAME":"STARLINK-3920"},{"OBJECT_ID":"2022-051AS","LAUNCH_DATE":"2022-05-13","CENTER_NAME":"EARTH","OBJECT_TYPE":"PAYLOAD","INCLINATION":"53.2171","ECCENTRICITY":"0.00012890","RA_OF_ASC_NODE":"166.1604","ARG_OF_PERICENTER":"81.8060","COUNTRY_CODE":"US","APOAPSIS":"540.646","SITE":"AFWTR","DECAY_DATE":null,"MEAN_ANOMALY":"278.3078","TIME_SYSTEM":"UTC","SEMIMAJOR_AXIS":"6917.889","REF_FRAME":"TEME","NORAD_CAT_ID":"52576","TLE_LINE2":"2 52576  53.2171 166.1604 0001289  81.8060 278.3078 15.08837078 40515","REV_AT_EPOCH":"4051","PERIAPSIS":"538.863","TLE_LINE1":"1 52576U 22051AS  23031.50993756  .00000995  00000-0  80599-4 0  9996","ELEMENT_SET_NO":"999","RCS_SIZE":"LARGE","CLASSIFICATION_TYPE":"U","EPOCH":"2023-01-31T12:14:18.605184","FILE":"3766475","GP_ID":"224096872","MEAN_ELEMENT_THEORY":"SGP4","MEAN_MOTION":"15.08837078","MEAN_MOTION_DDOT":"0.0000000000000","PERIOD":"95.438","EPHEMERIS_TYPE":"0","MEAN_MOTION_DOT":"0.00000995","BSTAR":"0.00008059900000","OBJECT_NAME":"STARLINK-3932"}];
